{"type": "FeatureCollection", "features": [ {"type": "Feature", "properties": {"norad_id": 66911, "name": "1998-067XX", "group": "stations", "lat": 7.645018800478168, "lon": -111.7253495238866, "alt_km": 406.1146829644222, "timestamp": "2025-12-26T09:30:52.377677+00:00", "meta": {"OBJECT_NAME": "1998-067XX", "OBJECT_ID": "1998-067XX", "EPOCH": "2025-12-25T14:15:47.536416", "MEAN_MOTION": 15.53814599, "ECCENTRICITY": 0.000352, "INCLINATION": 51.6302, "RA_OF_ASC_NODE": 78.3793, "ARG_OF_PERICENTER": 286.8967, "MEAN_ANOMALY": 73.1637, "EPHEMERIS_TYPE": 0, "CLASSIFICATION_TYPE": "U", "NORAD_CAT_ID": 66911, "ELEMENT_SET_NO": 999, "REV_AT_EPOCH": 360, "BSTAR": 0.0011507, "MEAN_MOTION_DOT": 0.00075561, "MEAN_MOTION_DDOT": 0}, "tle": {"line1": "1 66911U 98067XX  25359.59430019  .00075561  00000+0  11507-2 0  9997", "line2": "2 66911  51.6302  78.3793 0003520 286.8967  73.1637 15.53814599  3601"}}, "geometry": {"type": "Point", "coordinates": [-111.7253495238866, 7.645018800478168]}}, {"type": "Feature", "properties": {"norad_id": 66912, "name": "1998-067XY", "group": "stations", "lat": 51.59097349621395, "lon": 166.75339640922002, "alt_km": 404.69795598092423, "timestamp": "2025-12-26T09:30:52.377687+00:00", "meta": {"OBJECT_NAME": "1998-067XY", "OBJECT_ID": "1998-067XY", "EPOCH": "2025-12-25T14:35:00.692160", "MEAN_MOTION": 15.52392127, "ECCENTRICITY": 0.0003813, "INCLINATION": 51.6317, "RA_OF_ASC_NODE": 78.4687, "ARG_OF_PERICENTER": 296.0372, "MEAN_ANOMALY": 64.0225, "EPHEMERIS_TYPE": 0, "CLASSIFICATION_TYPE": "U", "NORAD_CAT_ID": 66912, "ELEMENT_SET_NO": 999, "REV_AT_EPOCH": 360, "BSTAR": 0.0008056, "MEAN_MOTION_DOT": 0.00049931, "MEAN_MOTION_DDOT": 0}, "tle": {"line1": "1 66912U 98067XY  25359.60764690  .00049931  00000+0  80560-3 0  9993", "line2": "2 66912  51.6317  78.4687 0003813 296.0372  64.0225 15.52392127  3608"}}, "geometry": {"type": "Point", "coordinates": [166.75339640922002, 51.59097349621395]}}]}